{
  "type": "FeatureCollection",
  "features": [
    {
      "type": "Feature",
      "properties": {
        "norad_id": 34918,
        "name": "COSMOS 2251 DEB",
        "group": "cosmos-2251-debris",
        "lat": 40.729413895479766,
        "lon": 130.61484972741675,
        "alt_km": 708.426862849542,
        "timestamp": "2025-12-06T20:37:56.471047+00:00",
        "meta_object_name": "COSMOS 2251 DEB",
        "meta_object_id": "1993-036ADP",
        "meta_epoch": "2025-12-02T07:49:20.078112",
        "meta_mean_motion": 14.60858458,
        "meta_eccentricity": 0.0034182,
        "meta_inclination": 74.0712,
        "meta_ra_of_asc_node": 333.4916,
        "meta_arg_of_pericenter": 302.4495,
        "meta_mean_anomaly": 120.4085,
        "meta_ephemeris_type": 0,
        "meta_classification_type": "U",
        "meta_norad_cat_id": 34918,
        "meta_element_set_no": 999,
        "meta_rev_at_epoch": 65184,
        "meta_bstar": 0.0024749,
        "meta_mean_motion_dot": 0.00012194,
        "meta_mean_motion_ddot": 0,
        "tle_line1": "1 34918U 93036ADP 25336.32592683  .00012194  00000+0  24749-2 0  9997",
        "tle_line2": "2 34918  74.0712 333.4916 0034182 302.4495 120.4085 14.60858458651845"
      },
      "geometry": {
        "type": "Point",
        "coordinates": [
          130.61484972741675,
          40.729413895479766
        ]
      }
    },
    {
      "type": "Feature",
      "properties": {
        "norad_id": 34924,
        "name": "COSMOS 2251 DEB",
        "group": "cosmos-2251-debris",
        "lat": 21.788119583453373,
        "lon": -85.90268521494778,
        "alt_km": 658.9064203146172,
        "timestamp": "2025-12-06T20:37:56.471058+00:00",
        "meta_object_name": "COSMOS 2251 DEB",
        "meta_object_id": "1993-036ADV",
        "meta_epoch": "2025-12-06T15:01:55.298208",
        "meta_mean_motion": 14.59935355,
        "meta_eccentricity": 0.00549735,
        "meta_inclination": 74.0408,
        "meta_ra_of_asc_node": 101.1106,
        "meta_arg_of_pericenter": 187.1682,
        "meta_mean_anomaly": 184.4122,
        "meta_ephemeris_type": 0,
        "meta_classification_type": "U",
        "meta_norad_cat_id": 34924,
        "meta_element_set_no": 999,
        "meta_rev_at_epoch": 87634,
        "meta_bstar": 0.0019852608,
        "meta_mean_motion_dot": 9.701e-05,
        "meta_mean_motion_ddot": 0,
        "tle_line1": "1 34924U 93036ADV 25340.62633447  .00009701  00000+0  19853-2 0  9996",
        "tle_line2": "2 34924  74.0408 101.1106 0054973 187.1682 184.4122 14.59935355876347"
      },
      "geometry": {
        "type": "Point",
        "coordinates": [
          -85.90268521494778,
          21.788119583453373
        ]
      }
    },
    {
      "type": "Feature",
      "properties": {
        "norad_id": 34944,
        "name": "COSMOS 2251 DEB",
        "group": "cosmos-2251-debris",
        "lat": 25.11818313907019,
        "lon": 54.787021534228906,
        "alt_km": 767.6385498309,
        "timestamp": "2025-12-06T20:37:56.471069+00:00",
        "meta_object_name": "COSMOS 2251 DEB",
        "meta_object_id": "1993-036ADX",
        "meta_epoch": "2025-12-04T10:12:22.291200",
        "meta_mean_motion": 14.14155566,
        "meta_eccentricity": 0.0219658,
        "meta_inclination": 73.7499,
        "meta_ra_of_asc_node": 247.036,
        "meta_arg_of_pericenter": 96.0924,
        "meta_mean_anomaly": 266.529,
        "meta_ephemeris_type": 0,
        "meta_classification_type": "U",
        "meta_norad_cat_id": 34944,
        "meta_element_set_no": 999,
        "meta_rev_at_epoch": 63965,
        "meta_bstar": 0.0011088,
        "meta_mean_motion_dot": 2.638e-05,
        "meta_mean_motion_ddot": 0,
        "tle_line1": "1 34944U 93036ADX 25338.42525800  .00002638  00000+0  11088-2 0  9990",
        "tle_line2": "2 34944  73.7499 247.0360 0219658  96.0924 266.5290 14.14155566639655"
      },
      "geometry": {
        "type": "Point",
        "coordinates": [
          54.787021534228906,
          25.11818313907019
        ]
      }
    },
    {
      "type": "Feature",
      "properties": {
        "norad_id": 34946,
        "name": "COSMOS 2251 DEB",
        "group": "cosmos-2251-debris",
        "lat": -38.26433431708706,
        "lon": -19.68019284906831,
        "alt_km": 727.2107282047327,
        "timestamp": "2025-12-06T20:37:56.471080+00:00",
        "meta_object_name": "COSMOS 2251 DEB",
        "meta_object_id": "1993-036ADZ",
        "meta_epoch": "2025-12-06T07:40:42.125664",
        "meta_mean_motion": 14.61945055,
        "meta_eccentricity": 0.00488917,
        "meta_inclination": 74.0231,
        "meta_ra_of_asc_node": 354.4135,
        "meta_arg_of_pericenter": 133.6333,
        "meta_mean_anomaly": 226.8905,
        "meta_ephemeris_type": 0,
        "meta_classification_type": "U",
        "meta_norad_cat_id": 34946,
        "meta_element_set_no": 999,
        "meta_rev_at_epoch": 88115,
        "meta_bstar": 0.0010126035,
        "meta_mean_motion_dot": 5.131e-05,
        "meta_mean_motion_ddot": 0,
        "tle_line1": "1 34946U 93036ADZ 25340.31993201  .00005131  00000+0  10126-2 0  9990",
        "tle_line2": "2 34946  74.0231 354.4135 0048891 133.6333 226.8905 14.61945055881157"
      },
      "geometry": {
        "type": "Point",
        "coordinates": [
          -19.68019284906831,
          -38.26433431708706
        ]
      }
    },
    {
      "type": "Feature",
      "properties": {
        "norad_id": 34949,
        "name": "COSMOS 2251 DEB",
        "group": "cosmos-2251-debris",
        "lat": -33.59410237082242,
        "lon": 110.16806952681037,
        "alt_km": 623.5430806131126,
        "timestamp": "2025-12-06T20:37:56.471090+00:00",
        "meta_object_name": "COSMOS 2251 DEB",
        "meta_object_id": "1993-036AEC",
        "meta_epoch": "2025-12-06T15:54:13.832640",
        "meta_mean_motion": 14.73932642,
        "meta_eccentricity": 0.00804076,
        "meta_inclination": 74.0178,
        "meta_ra_of_asc_node": 121.5274,
        "meta_arg_of_pericenter": 268.0726,
        "meta_mean_anomaly": 91.1237,
        "meta_ephemeris_type": 0,
        "meta_classification_type": "U",
        "meta_norad_cat_id": 34949,
        "meta_element_set_no": 999,
        "meta_rev_at_epoch": 88272,
        "meta_bstar": 0.00091929341,
        "meta_mean_motion_dot": 6.324e-05,
        "meta_mean_motion_ddot": 0,
        "tle_line1": "1 34949U 93036AEC 25340.66266010  .00006324  00000+0  91929-3 0  9998",
        "tle_line2": "2 34949  74.0178 121.5274 0080407 268.0726  91.1237 14.73932642882721"
      },
      "geometry": {
        "type": "Point",
        "coordinates": [
          110.16806952681037,
          -33.59410237082242
        ]
      }
    },
    {
      "type": "Feature",
      "properties": {
        "norad_id": 34953,
        "name": "COSMOS 2251 DEB",
        "group": "cosmos-2251-debris",
        "lat": 44.106879726971684,
        "lon": 54.87934942347581,
        "alt_km": 621.0584994117007,
        "timestamp": "2025-12-06T20:37:56.471101+00:00",
        "meta_object_name": "COSMOS 2251 DEB",
        "meta_object_id": "1993-036AEG",
        "meta_epoch": "2025-12-06T10:41:59.741376",
        "meta_mean_motion": 14.68874391,
        "meta_eccentricity": 0.00577415,
        "meta_inclination": 74.0934,
        "meta_ra_of_asc_node": 39.6307,
        "meta_arg_of_pericenter": 33.6002,
        "meta_mean_anomaly": 345.1657,
        "meta_ephemeris_type": 0,
        "meta_classification_type": "U",
        "meta_norad_cat_id": 34953,
        "meta_element_set_no": 999,
        "meta_rev_at_epoch": 88036,
        "meta_bstar": 0.0014781569,
        "meta_mean_motion_dot": 8.843e-05,
        "meta_mean_motion_ddot": 0,
        "tle_line1": "1 34953U 93036AEG 25340.44583034  .00008843  00000+0  14782-2 0  9996",
        "tle_line2": "2 34953  74.0934  39.6307 0057741  33.6002 345.1657 14.68874391880366"
      },
      "geometry": {
        "type": "Point",
        "coordinates": [
          54.87934942347581,
          44.106879726971684
        ]
      }
    },
    {
      "type": "Feature",
      "properties": {
        "norad_id": 34955,
        "name": "COSMOS 2251 DEB",
        "group": "cosmos-2251-debris",
        "lat": -49.262612512009525,
        "lon": 97.87775686783245,
        "alt_km": 579.1492162249333,
        "timestamp": "2025-12-06T20:37:56.471111+00:00",
        "meta_object_name": "COSMOS 2251 DEB",
        "meta_object_id": "1993-036AEJ",
        "meta_epoch": "2025-12-03T01:58:24.293568",
        "meta_mean_motion": 15.00189355,
        "meta_eccentricity": 0.00783052,
        "meta_inclination": 74.0373,
        "meta_ra_of_asc_node": 266.1437,
        "meta_arg_of_pericenter": 338.174,
        "meta_mean_anomaly": 21.6115,
        "meta_ephemeris_type": 0,
        "meta_classification_type": "U",
        "meta_norad_cat_id": 34955,
        "meta_element_set_no": 999,
        "meta_rev_at_epoch": 89889,
        "meta_bstar": 0.0013091752,
        "meta_mean_motion_dot": 0.00017463,
        "meta_mean_motion_ddot": 0,
        "tle_line1": "1 34955U 93036AEJ 25337.08222562  .00017463  00000+0  13092-2 0  9991",
        "tle_line2": "2 34955  74.0373 266.1437 0078305 338.1740  21.6115 15.00189355898895"
      },
      "geometry": {
        "type": "Point",
        "coordinates": [
          97.87775686783245,
          -49.262612512009525
        ]
      }
    }
  ]
}